[{"OBJECT_NAME":"ION SCV-004","OBJECT_ID":"2022-002K","EPOCH":"2026-03-09T16:32:03.244416","MEAN_MOTION":15.29369331,"ECCENTRICITY":0.00072157,"INCLINATION":97.2961,"RA_OF_ASC_NODE":128.2294,"ARG_OF_PERICENTER":1.6783,"MEAN_ANOMALY":358.448,"EPHEMERIS_TYPE":0,"CLASSIFICATION_TYPE":"U","NORAD_CAT_ID":50993,"ELEMENT_SET_NO":999,"REV_AT_EPOCH":23008,"BSTAR":0.00023198467,"MEAN_MOTION_DOT":6.538e-5,"MEAN_MOTION_DDOT":0},{"OBJECT_NAME":"STARLINK-30548","OBJECT_ID":"2023-156U","EPOCH":"2026-03-09T12:00:31.769280","MEAN_MOTION":15.30179201,"ECCENTRICITY":8.785e-5,"INCLINATION":53.1571,"RA_OF_ASC_NODE":169.0796,"ARG_OF_PERICENTER":82.059,"MEAN_ANOMALY":278.0511,"EPHEMERIS_TYPE":0,"CLASSIFICATION_TYPE":"U","NORAD_CAT_ID":58046,"ELEMENT_SET_NO":999,"REV_AT_EPOCH":13495,"BSTAR":0.00041289113,"MEAN_MOTION_DOT":0.00011881,"MEAN_MOTION_DDOT":0}]
