ION SCV-004             
1 50993U 22002K   26068.68892644  .00006538  00000+0  23198-3 0  9998
2 50993  97.2961 128.2294 0007216   1.6783 358.4480 15.29369331230088
STARLINK-30548          
1 58046U 23156U   26068.50036770  .00011881  00000+0  41289-3 0  9995
2 58046  53.1571 169.0796 0000878  82.0590 278.0511 15.30179201134957
